1 40903U 15049E   21166.16640233  .00004094  00000-0  87538-4 0  9998
2 40903  97.2355 220.6543 0013079  31.2257  53.3280 15.45316551322443